[{"OBJECT_NAME":"STARLINK-35987","OBJECT_ID":"2025-281N","EPOCH":"2026-03-09T03:23:11.280192","MEAN_MOTION":15.2755869,"ECCENTRICITY":0.00017664,"INCLINATION":43.003,"RA_OF_ASC_NODE":346.3973,"ARG_OF_PERICENTER":282.2881,"MEAN_ANOMALY":77.7773,"EPHEMERIS_TYPE":0,"CLASSIFICATION_TYPE":"U","NORAD_CAT_ID":66860,"ELEMENT_SET_NO":999,"REV_AT_EPOCH":1610,"BSTAR":0.0013311338,"MEAN_MOTION_DOT":0.00036526,"MEAN_MOTION_DDOT":0},{"OBJECT_NAME":"NOAA 17 DEB","OBJECT_ID":"2002-032AF","EPOCH":"2026-03-09T00:24:06.552000","MEAN_MOTION":15.25501717,"ECCENTRICITY":0.00030847,"INCLINATION":98.6472,"RA_OF_ASC_NODE":92.5947,"ARG_OF_PERICENTER":165.9893,"MEAN_ANOMALY":194.1428,"EPHEMERIS_TYPE":0,"CLASSIFICATION_TYPE":"U","NORAD_CAT_ID":48614,"ELEMENT_SET_NO":999,"REV_AT_EPOCH":26420,"BSTAR":0.01090047,"MEAN_MOTION_DOT":0.00286783,"MEAN_MOTION_DDOT":0}]
